{
  "norad_id": 66510,
  "name": "STARLINK-35600",
  "history": [
    {
      "epoch": "2026-03-28T20:08:56.309568",
      "apogee_km": 483.98081531366915,
      "perigee_km": 481.820823387382,
      "latitude_deg": -14.518230066921987,
      "longitude_deg": -168.40410048002377,
      "semi_major_axis_km": 6861.037819350526,
      "eccentricity": 0.00015741,
      "inclination_deg": 43.0004,
      "raan_deg": 242.8903,
      "arg_perigee_deg": 273.5546,
      "mean_anomaly_deg": 86.5125,
      "mean_motion_rev_day": 15.2762952
    }
  ]
}